NORAD_CAT_ID,OBJECT_NAME,OBJECT_TYPE,EPOCH,MEAN_MOTION,ECCENTRICITY,INCLINATION,RA_OF_ASC_NODE,ARG_OF_PERICENTER,MEAN_ANOMALY,BSTAR,MEAN_MOTION_DOT,MEAN_MOTION_DDOT,TLE_LINE0,TLE_LINE1,TLE_LINE2,SEMIMAJOR_AXIS,PERIOD,APOGEE,PERIGEE,DECAYED
53824.0,STARLINK-4757,PAYLOAD,2024-01-25 16:46:32,15.08828211,0.0001589,53.2157,178.8042,80.9105,279.2067,-0.00033281,-5.579e-05,0.0,0 STARLINK-4757,1 53824U 22114G   24025.69898936 -.00005579  00000-0 -33281-3 0  9991,2 53824  53.2157 178.8042 0001589  80.9105 279.2067 15.08828211 75442,6917.916,95.438,540.881,538.682,0.0
53824.0,STARLINK-4757,PAYLOAD,2024-01-26 13:26:34,15.088416,0.0001091,53.2156,174.937,83.0336,277.078,0.00046927,7.189e-05,0.0,0 STARLINK-4757,1 53824U 22114G   24026.56011962  .00007189  00000-0  46927-3 0  9992,2 53824  53.2156 174.9370 0001091  83.0336 277.0780 15.08841600 76020,6917.875,95.437,540.495,538.986,0.0
53824.0,STARLINK-4757,PAYLOAD,2024-01-26 16:37:20,15.0885085,0.000118,53.2162,174.3432,95.8211,264.2916,0.00090059,0.00014078,0.0,0 STARLINK-4757,1 53824U 22114G   24026.69259963  .00014078  00000-0  90059-3 0  9991,2 53824  53.2162 174.3432 0001180  95.8211 264.2916 15.08850850 75599,6917.847,95.437,540.529,538.896,0.0
53824.0,STARLINK-4757,PAYLOAD,2024-01-27 13:17:21,15.08847307,0.0001362,53.2163,170.4738,115.2821,244.8312,0.00039272,5.969e-05,0.0,0 STARLINK-4757,1 53824U 22114G   24027.55371888  .00005969  00000-0  39272-3 0  9997,2 53824  53.2163 170.4738 0001362 115.2821 244.8312 15.08847307 75724,6917.858,95.437,540.665,538.781,0.0
53824.0,STARLINK-4757,PAYLOAD,2024-01-27 14:52:44,15.08846113,0.0001355,53.2165,170.1758,117.1024,243.0107,0.00036295,5.494e-05,0.0,0 STARLINK-4757,1 53824U 22114G   24027.61995883  .00005494  00000-0  36295-3 0  9996,2 53824  53.2165 170.1758 0001355 117.1024 243.0107 15.08846113 76181,6917.862,95.437,540.664,538.789,0.0
53824.0,STARLINK-4757,PAYLOAD,2024-01-27 16:28:07,15.08845794,0.0001251,53.2167,169.8806,114.8016,245.3106,0.00031999,4.809e-05,0.0,0 STARLINK-4757,1 53824U 22114G   24027.68619946  .00004809  00000-0  31999-3 0  9991,2 53824  53.2167 169.8806 0001251 114.8016 245.3106 15.08845794 76191,6917.863,95.437,540.593,538.862,0.0
53824.0,STARLINK-4757,PAYLOAD,2024-01-28 14:43:31,15.08836388,0.0001377,53.2173,165.7202,111.8253,248.2886,-5.4105e-05,-1.149e-05,0.0,0 STARLINK-4757,1 53824U 22114G   24028.61356436 -.00001149  00000-0 -54105-4 0  9998,2 53824  53.2173 165.7202 0001377 111.8253 248.2886 15.08836388 76334,6917.891,95.438,540.709,538.804,0.0
53824.0,STARLINK-4757,PAYLOAD,2024-01-29 17:45:05,15.08843299,0.0001177,53.2163,160.663,98.0223,262.0903,0.00020356,2.954e-05,0.0,0 STARLINK-4757,1 53824U 22114G   24029.73964475  .00002954  00000-0  20356-3 0  9993,2 53824  53.2163 160.6630 0001177  98.0223 262.0903 15.08843299 76055,6917.87,95.437,540.55,538.921,0.0
53824.0,STARLINK-4757,PAYLOAD,2024-01-30 08:03:33,15.08837845,0.0001335,53.2176,157.9907,110.4039,249.7097,7.3988e-05,8.9e-06,0.0,0 STARLINK-4757,1 53824U 22114G   24030.33580882  .00000890  00000-0  73988-4 0  9994,2 53824  53.2176 157.9907 0001335 110.4039 249.7097 15.08837845 76141,6917.887,95.438,540.676,538.828,0.0
53824.0,STARLINK-4757,PAYLOAD,2024-01-30 14:25:06,15.08835325,0.0001197,53.2158,156.7996,89.9217,270.1913,0.000125,1.702e-05,0.0,0 STARLINK-4757,1 53824U 22114G   24030.60077151  .00001702  00000-0  12500-3 0  9999,2 53824  53.2158 156.7996 0001197  89.9217 270.1913 15.08835325 76630,6917.895,95.438,540.588,538.932,0.0
53824.0,STARLINK-4757,PAYLOAD,2024-01-30 16:00:29,15.08838668,0.0001346,53.2168,156.5036,85.2941,274.8205,0.0001036,1.361e-05,0.0,0 STARLINK-4757,1 53824U 22114G   24030.66701013  .00001361  00000-0  10360-3 0  9999,2 53824  53.2168 156.5036 0001346  85.2941 274.8205 15.08838668 76642,6917.884,95.438,540.681,538.818,0.0
53824.0,STARLINK-4757,PAYLOAD,2024-01-31 17:26:39,15.088438,0.0001401,53.2166,151.7454,73.8373,286.2773,0.00022557,3.304e-05,0.0,0 STARLINK-4757,1 53824U 22114G   24031.72684896  .00003304  00000-0  22557-3 0  9996,2 53824  53.2166 151.7454 0001401  73.8373 286.2773 15.08843800 76354,6917.869,95.437,540.703,538.765,0.0
53824.0,STARLINK-4757,PAYLOAD,2024-02-01 10:55:54,15.08836871,0.0001292,53.2172,148.473,79.8838,280.2299,-8.5313e-06,-4.24e-06,0.0,0 STARLINK-4757,1 53824U 22114G   24032.45549316 -.00000424  00000-0 -85313-5 0  9997,2 53824  53.2172 148.4730 0001292  79.8838 280.2299 15.08836871 76460,6917.89,95.438,540.649,538.861,0.0
53824.0,STARLINK-4757,PAYLOAD,2024-02-01 12:31:17,15.08838685,0.0001323,53.2183,148.1759,77.7298,282.3843,2.1637e-05,5.6e-07,0.0,0 STARLINK-4757,1 53824U 22114G   24032.52173443  .00000056  00000-0  21637-4 0  9996,2 53824  53.2183 148.1759 0001323  77.7298 282.3843 15.08838685 76926,6917.884,95.438,540.665,538.834,0.0
53824.0,STARLINK-4757,PAYLOAD,2024-02-01 14:06:40,15.08839308,0.000143,53.2173,147.8782,88.8727,271.2429,6.1123e-05,6.85e-06,0.0,0 STARLINK-4757,1 53824U 22114G   24032.58797242  .00000685  00000-0  61123-4 0  9993,2 53824  53.2173 147.8782 0001430  88.8727 271.2429 15.08839308 76937,6917.883,95.438,540.737,538.758,0.0
53824.0,STARLINK-4757,PAYLOAD,2024-02-02 12:22:04,15.08841665,0.0001458,53.217,143.7158,89.8402,270.2757,0.0001503,2.105e-05,0.0,0 STARLINK-4757,1 53824U 22114G   24033.51532687  .00002105  00000-0  15030-3 0  9991,2 53824  53.2170 143.7158 0001458  89.8402 270.2757 15.08841665 76625,6917.875,95.437,540.749,538.732,0.0
53824.0,STARLINK-4757,PAYLOAD,2024-02-02 13:57:27,15.08843857,0.0001487,53.2171,143.4183,88.9214,271.1948,0.0001674,2.377e-05,0.0,0 STARLINK-4757,1 53824U 22114G   24033.58156557  .00002377  00000-0  16740-3 0  9996,2 53824  53.2171 143.4183 0001487  88.9214 271.1948 15.08843857 77082,6917.869,95.437,540.762,538.705,0.0
53824.0,STARLINK-4757,PAYLOAD,2024-02-03 12:12:51,15.08840075,0.0001576,53.2175,139.2583,109.9015,250.2147,6.659e-05,7.72e-06,0.0,0 STARLINK-4757,1 53824U 22114G   24034.50893190  .00000772  00000-0  66590-4 0  9996,2 53824  53.2175 139.2583 0001576 109.9015 250.2147 15.08840075 77229,6917.88,95.438,540.835,538.655,0.0
53824.0,STARLINK-4757,PAYLOAD,2024-02-03 16:59:00,15.08843242,0.0001536,53.2171,138.3614,106.2102,253.906,9.0365e-05,1.151e-05,0.0,0 STARLINK-4757,1 53824U 22114G   24034.70764890  .00001151  00000-0  90365-4 0  9991,2 53824  53.2171 138.3614 0001536 106.2102 253.9060 15.08843242 76809,6917.87,95.437,540.798,538.673,0.0
53824.0,STARLINK-4757,PAYLOAD,2024-02-04 12:03:38,15.0884685,0.0001599,53.2172,134.7908,106.0825,254.0344,3.4172e-05,2.56e-06,0.0,0 STARLINK-4757,1 53824U 22114G   24035.50252851  .00000256  00000-0  34172-4 0  9998,2 53824  53.2172 134.7908 0001599 106.0825 254.0344 15.08846850 77373,6917.859,95.437,540.831,538.618,0.0
53824.0,STARLINK-4757,PAYLOAD,2024-02-05 11:54:25,15.0884572,0.0001987,53.2164,130.3303,130.0071,230.1096,0.00011787,1.589e-05,0.0,0 STARLINK-4757,1 53824U 22114G   24036.49612725  .00001589  00000-0  11787-3 0  9993,2 53824  53.2164 130.3303 0001987 130.0071 230.1096 15.08845720 77077,6917.863,95.437,541.102,538.353,0.0
53824.0,STARLINK-4757,PAYLOAD,2024-02-05 13:29:48,15.08846977,0.0001384,53.2163,130.0346,93.9689,266.1462,0.00013249,1.822e-05,0.0,0 STARLINK-4757,1 53824U 22114G   24036.56236821  .00001822  00000-0  13249-3 0  9995,2 53824  53.2163 130.0346 0001384  93.9689 266.1462 15.08846977 77535,6917.859,95.437,540.681,538.767,0.0
53824.0,STARLINK-4757,PAYLOAD,2024-02-06 11:45:12,15.08836456,0.0001221,53.2164,125.8704,95.3036,264.8095,1.2347e-06,-2.68e-06,0.0,0 STARLINK-4757,1 53824U 22114G   24037.48973092 -.00000268  00000-0  12347-5 0  9999,2 53824  53.2164 125.8704 0001221  95.3036 264.8095 15.08836456 77222,6917.891,95.438,540.601,538.912,0.0
53824.0,STARLINK-4757,PAYLOAD,2024-02-06 13:20:36,15.0883235,0.0001289,53.2163,125.5763,84.5197,275.5942,-2.1786e-05,-6.34e-06,0.0,0 STARLINK-4757,1 53824U 22114G   24037.55597498 -.00000634  00000-0 -21786-4 0  9993,2 53824  53.2163 125.5763 0001289  84.5197 275.5942 15.08832350 77684,6917.904,95.438,540.66,538.877,0.0
53824.0,STARLINK-4757,PAYLOAD,2024-02-07 13:11:22,15.08846325,0.0001269,53.2172,121.117,79.4965,280.617,0.00017569,2.51e-05,0.0,0 STARLINK-4757,1 53824U 22114G   24038.54956745  .00002510  00000-0  17569-3 0  9993,2 53824  53.2172 121.1170 0001269  79.4965 280.6170 15.08846325 77386,6917.861,95.437,540.604,538.848,0.0
53824.0,STARLINK-4757,PAYLOAD,2024-02-08 11:26:47,15.08835603,0.000147,53.2169,116.9553,82.5978,277.5181,0.00019384,2.798e-05,0.0,0 STARLINK-4757,1 53824U 22114G   24039.47693316  .00002798  00000-0  19384-3 0  9993,2 53824  53.2169 116.9553 0001470  82.5978 277.5181 15.08835603 77522,6917.894,95.438,540.776,538.742,0.0
53824.0,STARLINK-4757,PAYLOAD,2024-02-09 11:17:34,15.0884244,0.0001628,53.2167,112.4922,83.9145,276.2033,9.8157e-05,1.275e-05,0.0,0 STARLINK-4757,1 53824U 22114G   24040.47053559  .00001275  00000-0  98157-4 0  9999,2 53824  53.2167 112.4922 0001628  83.9145 276.2033 15.08842440 78123,6917.873,95.437,540.864,538.612,0.0
53824.0,STARLINK-4757,PAYLOAD,2024-02-10 09:32:58,15.08838603,0.0001631,53.2189,108.3317,95.2303,264.8875,2.5685e-05,1.21e-06,0.0,0 STARLINK-4757,1 53824U 22114G   24041.39790184  .00000121  00000-0  25685-4 0  9998,2 53824  53.2189 108.3317 0001631  95.2303 264.8875 15.08838603 77813,6917.885,95.438,540.878,538.621,0.0
53824.0,STARLINK-4757,PAYLOAD,2024-02-11 09:23:45,15.08843822,0.0001652,53.2173,103.8671,102.5137,257.604,7.5043e-05,9.07e-06,0.0,0 STARLINK-4757,1 53824U 22114G   24042.39149767  .00000907  00000-0  75043-4 0  9999,2 53824  53.2173 103.8671 0001652 102.5137 257.6040 15.08843822 78419,6917.869,95.437,540.877,538.591,0.0
53824.0,STARLINK-4757,PAYLOAD,2024-02-12 09:14:32,15.08846191,0.0001643,53.2175,99.409,98.5999,261.5179,0.0001669,2.37e-05,0.0,0 STARLINK-4757,1 53824U 22114G   24043.38509459  .00002370  00000-0  16690-3 0  9995,2 53824  53.2175  99.4090 0001643  98.5999 261.5179 15.08846191 78561,6917.861,95.437,540.863,538.59,0.0
